[{"OBJECT_NAME":"QIANFAN-24","OBJECT_ID":"2024-185F","EPOCH":"2026-03-09T23:10:13.381824","MEAN_MOTION":14.23940693,"ECCENTRICITY":0.00101265,"INCLINATION":88.9739,"RA_OF_ASC_NODE":66.9556,"ARG_OF_PERICENTER":26.7081,"MEAN_ANOMALY":333.4631,"EPHEMERIS_TYPE":0,"CLASSIFICATION_TYPE":"U","NORAD_CAT_ID":61557,"ELEMENT_SET_NO":999,"REV_AT_EPOCH":8243,"BSTAR":0.00040785949,"MEAN_MOTION_DOT":9.49e-6,"MEAN_MOTION_DDOT":0},{"OBJECT_NAME":"CZ-12 R\/B","OBJECT_ID":"2025-168K","EPOCH":"2026-03-09T16:46:06.248352","MEAN_MOTION":14.16511146,"ECCENTRICITY":0.00765865,"INCLINATION":49.9817,"RA_OF_ASC_NODE":233.9661,"ARG_OF_PERICENTER":145.1498,"MEAN_ANOMALY":215.446,"EPHEMERIS_TYPE":0,"CLASSIFICATION_TYPE":"U","NORAD_CAT_ID":65115,"ELEMENT_SET_NO":999,"REV_AT_EPOCH":3080,"BSTAR":0.00019349803,"MEAN_MOTION_DOT":2.42e-6,"MEAN_MOTION_DDOT":0}]
